IRIDIUM 119             
1 42959U 17061E   24270.79141908  .00000258  00000+0  84967-4 0  9990
2 42959  86.3915 287.8403 0001948  97.3106 262.8311 14.34219825364749
IRIDIUM 107             
1 42960U 17061F   24270.81044719 -.00000040  00000+0 -21489-4 0  9998
2 42960  86.3913 287.8496 0001991  99.9231 260.2190 14.34217594364755
IRIDIUM 132             
1 42961U 17061G   24270.81678974  .00000322  00000+0  10793-3 0  9991
2 42961  86.3915 287.8311 0002238 102.1289 258.0158 14.34219477364750
IRIDIUM 136             
1 42962U 17061H   24270.77873100  .00000293  00000+0  97677-4 0  9999
2 42962  86.3915 287.8506 0002125  91.3296 268.8143 14.34217283364766
IRIDIUM 139             
1 42963U 17061J   24270.78507675  .00000092  00000+0  25932-4 0  9994
2 42963  86.3914 287.8996 0002129 102.2577 257.8857 14.34218574364772
IRIDIUM 125             
1 42964U 17061K   24270.77239197  .00000356  00000+0  12005-3 0  9994
2 42964  86.3917 287.9547 0001686  98.7738 261.3649 14.34219803364780
IRIDIUM 135             
1 43070U 17083A   24270.81627838  .00000103  00000+0  29848-4 0  9999
2 43070  86.3981 224.5759 0002635  83.5287 276.6209 14.34217515354089
IRIDIUM 138             
1 43071U 17083B   24270.63234928  .00000945  00000+0  33049-3 0  9995
2 43071  86.3972 224.3576 0002024  76.8171 283.3250 14.34220190354044
